{
  "norad_id": 67104,
  "name": "STARLINK-36258",
  "history": [
    {
      "epoch": "2026-03-28T15:36:56.821824",
      "apogee_km": 484.1265221494896,
      "perigee_km": 481.85823277730015,
      "latitude_deg": -38.58228110847149,
      "longitude_deg": -127.1368646400515,
      "semi_major_axis_km": 6861.129377463395,
      "eccentricity": 0.0001653,
      "inclination_deg": 43.004,
      "raan_deg": 62.1269,
      "arg_perigee_deg": 281.0375,
      "mean_anomaly_deg": 79.0291,
      "mean_motion_rev_day": 15.27598942
    }
  ]
}